GPS BIIF-10             
1 40730U 15033A   25068.05008161  .00000003  00000+0  00000+0 0  9999
2 40730  54.3637 286.2197 0104389  23.7487 336.7751  2.00553277 70667
METEOSAT-11 (MSG-4)     
1 40732U 15034A   25068.87475457  .00000045  00000+0  00000+0 0  9994
2 40732   2.0394  72.1671 0000812 298.7106 121.1284  1.00266835  2567
GSAT0205 (GALILEO 9)    
1 40889U 15045A   25068.07499584  .00000025  00000+0  00000+0 0  9996
2 40889  55.1076 234.4493 0005950  48.5897 311.4241  1.70473681 59089
GSAT0206 (GALILEO 10)   
1 40890U 15045B   25066.53586933  .00000039  00000+0  00000+0 0  9997
2 40890  55.1073 234.4869 0003843  51.1409 308.8604  1.70473594 59089
GPS BIIF-11             
1 41019U 15062A   25067.60780204 -.00000037  00000+0  00000+0 0  9995
2 41019  56.6227  48.8045 0103019 228.5277 130.5868  2.00566633 68490
ELEKTRO-L 2             
1 41105U 15074A   25068.75389149 -.00000133  00000+0  00000+0 0  9991
2 41105   5.5193  76.2310 0003231 224.1207 124.1778  1.00272278 33849
GSAT0209 (GALILEO 12)   
1 41174U 15079A   25067.87782287  .00000002  00000+0  00000+0 0  9998
2 41174  55.5525 114.0382 0004622 313.5685  46.4648  1.70474678 56849
GSAT0208 (GALILEO 11)   
1 41175U 15079B   25067.51117690  .00000001  00000+0  00000+0 0  9999
2 41175  55.5510 114.0456 0003889 311.9280  48.1091  1.70474563 57253
GPS BIIF-12             
1 41328U 16007A   25068.69115220  .00000009  00000+0  00000+0 0  9996
2 41328  55.2476 107.8978 0086872 241.4168 117.7745  2.00574410 66520
GSAT0211 (GALILEO 14)   
1 41549U 16030A   25068.80794390  .00000019  00000+0  00000+0 0  9992
2 41549  55.2557 234.4640 0003348  25.4886 334.4871  1.70473727 54735
GSAT0210 (GALILEO 13)   
1 41550U 16030B   25066.71941168  .00000038  00000+0  00000+0 0  9990
2 41550  55.2554 234.5197 0001245 173.7019 186.2666  1.70473831 54710
INSAT-3DR               
1 41752U 16054A   25068.90461478 -.00000094  00000+0  00000+0 0  9997
2 41752   0.0353 102.9480 0012644 178.3815 286.1366  1.00271285 31143
GSAT0207 (GALILEO 15)   
1 41859U 16069A   25068.75786744  .00000007  00000+0  00000+0 0  9993
2 41859  55.2201 113.9505 0005210 299.5451  60.4785  1.70474552 51484
GSAT0212 (GALILEO 16)   
1 41860U 16069B   25068.02526325  .00000003  00000+0  00000+0 0  9998
2 41860  55.2172 113.9668 0003469 322.2889  37.7589  1.70474755 51727
GSAT0213 (GALILEO 17)   
1 41861U 16069C   25067.80681657  .00000001  00000+0  00000+0 0  9992
2 41861  55.2194 113.9801 0005411 283.6895  76.3215  1.70475010 51581
GSAT0214 (GALILEO 18)   
1 41862U 16069D   25067.95233485  .00000002  00000+0  00000+0 0  9992
2 41862  55.2184 113.9691 0004315 284.9925  75.0315  1.70474869 51711
GOES 16                 
1 41866U 16071A   25068.88435731 -.00000265  00000+0  00000+0 0  9992
2 41866   0.0918 286.4026 0001865  71.7707  52.7234  1.00269043 30441
